,City,Country,Lat,Lng,Hotel Name
0,celestun,MX,20.87,-90.4,Posada Lilia
1,chokurdakh,RU,70.63,147.92,
2,new norfolk,LR,6.65,-10.59,
3,rikitea,PF,-23.12,-134.97,Pension Maro'i
4,mataura,NZ,-46.19,168.86,Ellie's Villa
5,hermanus,ZA,-34.42,19.23,Misty Waves Boutique Hotel
6,avarua,CK,-21.21,-159.78,Paradise Inn
7,busselton,AU,-33.65,115.33,Observatory Guest House
8,yulara,AU,-25.24,130.99,Desert Gardens Hotel - Ayers Rock Resort
9,kapaa,US,22.08,-159.32,Sheraton Kauai Resort at Coconut Beach
10,talnakh,RU,69.49,88.4,Talnakh Hotel
11,moron,AR,-34.65,-58.62,Hotel Morón
12,port alfred,CD,-7.03,29.76,
13,ribeira grande,ES,42.75,-8.44,Pensión Residencial Victoria Drinks&Food
14,samarai,PG,-10.62,150.67,Nuli Sapi
15,ulladulla,AU,-35.35,150.47,Sandpiper Motel
16,atuona,PF,-9.8,-139.03,Villa Enata
17,hithadhoo,MV,-0.6,73.08,Scoop Guest House
18,pasighat,IN,28.07,95.33,Siang Guest House
19,bucerias,MX,20.75,-105.33,Villa del Palmar Flamingos Beach Resort & Spa Riviera Nayarit
20,amberley,US,39.2,-84.43,"Motel 6 Cincinnati, OH - Central - Norwood"
21,kaitangata,NZ,-46.28,169.85,Kaitangata Motor Camp
22,makakilo city,US,21.35,-158.09,Marriott's Ko Olina Beach Club
23,longyearbyen,SJ,78.22,15.64,"Radisson Blu Polar Hotel, Spitsbergen"
24,saint-philippe,RE,-21.36,55.77,"Chambres d'hôte ""La Trinité"""
25,punta arenas,PH,8.99,125.34,Vyjannex boarding house
26,east london,IS,65.0,-15.0,Hengifoss Guesthouse
27,vaini,TO,-21.2,-175.2,Keleti Beach Resort
28,ishigaki,JP,24.34,124.16,Hotel Peace Land Ishigakijima
29,guerrero negro,MX,17.67,-100.0,
30,ushuaia,AR,-54.8,-68.3,Albatros Hotel
31,lompoc,US,34.64,-120.46,Holiday Inn Express Lompoc
32,belaya gora,UA,49.03,25.77,Hotel Anastasia
33,qaanaaq,GL,77.48,-69.36,Qaanaaq Hotel
34,geraldton,AU,-28.77,114.6,Broadwater Mariner Resort
35,thompson,CA,55.74,-97.86,Burntwood Hotel
36,rwamagana,RW,-1.95,30.43,Centre Pastoral St. Augustin
37,waingapu,ID,-9.66,120.26,Pondok Wisata Elim
38,hilo,US,19.73,-155.09,Hilo Hawaiian Hotel
39,inirida,CO,3.87,-67.92,Fuente del Guania Hotel de Lujo
40,upernavik,GL,72.79,-56.15,Gina's Guesthouse - Upernavik
41,san cristobal,ML,13.3,-4.9,Hôtel Teriya
42,xichang,CN,27.9,102.26,Xichang ibis Hotel
43,victoria,HK,22.29,114.16,Mini Hotel Central
44,georgetown,MY,5.41,100.34,Cititel Penang
45,albany,US,42.6,-73.97,
46,provideniya,RU,64.38,-173.3,
47,kalmunai,LK,7.42,81.82,VS Villa
48,saskylakh,RU,71.92,114.08,
49,bambous virieux,MU,-20.26,57.41,Ti Cabanon (Cabe Ltd.)
50,narsipatnam,IN,17.67,82.62,Lodge Vooda Residency AC
51,mar del plata,ES,43.4,-4.01,Hotel Costa Esmeralda Suites
52,yurimaguas,PE,-5.9,-76.08,Rio Huallaga Hotel & Business Center
53,grajau,BR,-5.82,-46.14,Hotel Confiança
54,kieta,PG,-6.22,155.63,
55,jamestown,US,42.1,-79.24,Hampton Inn & Suites Jamestown
56,kruisfontein,ZA,-34.0,24.73,Oyster Bay House Rental
57,mount gambier,GB,53.66,-1.85,Premier Inn Huddersfield West hotel
58,roebourne,AU,-20.78,117.13,Harding River Caravan Park
59,coihaique,CL,-45.58,-72.07,Diego De Almagro Coyhaique
60,thouars,FR,46.98,-0.22,Contact-Hotel-du-Relais
61,youkounkoun,GN,12.53,-13.13,
62,saldanha,ZA,-33.01,17.94,Blue Bay Lodge
63,dikson,RU,73.51,80.55,
64,cape town,CL,-36.41,-71.9,MOTEL Mediterraneo
65,nikolskoye,RU,59.7,30.79,Tourist House - Sablino
66,allanridge,ZA,-27.75,26.64,The Hatchery
67,amalapuram,IN,16.58,82.02,swayamprabha service apartments
68,naze,JP,28.37,129.48,奄美ポートタワーホテル
69,caxito,AO,-8.58,13.66,
70,jaunpur,IN,25.73,82.68,Hotel Varun
71,karratha,AU,-20.74,116.85,ibis Styles Karratha
72,rocha,UY,-34.48,-54.33,Beleza Pura B&B
73,constitucion,CL,-35.33,-72.42,Hotel Boutique Las Azucenas
74,jaca,ES,42.57,-0.55,Hotel Real Jaca & Spa
75,warmbad,,-28.45,18.73,
76,yongchang,CN,30.04,119.73,Fuli Hotel
77,barrow,US,71.29,-156.79,King Eider Inn
78,faanui,PF,-16.48,-151.75,Bora-Bora Pearl Beach Resort & Spa
79,mahebourg,MU,-20.41,57.7,Shandrani Beachcomber Resort & Spa
80,ayr,GB,55.46,-4.63,Mercure Ayr Hotel
81,ponta do sol,PT,38.73,-28.27,
82,airai,TL,-8.93,125.41,Juvinal Martin
83,leshan,CN,29.56,103.76,Leshan Haiyun International Youth Hostel
84,pevek,RU,69.7,170.31,Severnoye Zoloto
85,khatanga,RU,71.97,102.5,"Gostinitsa ""Zapolyar'ye"""
86,buzdyak,RU,54.58,54.55,Tgk Alisa
87,araguacu,BR,-12.93,-49.83,Brunas Park Hotel
88,tadine,NC,-21.55,167.88,
89,hargeysa,SO,9.56,44.06,Imperial Hotel
90,ust-barguzin,RU,53.45,108.98,Chivurkiyskaya Skazka
91,snyder,US,32.72,-100.92,Holiday Inn Express & Suites Snyder
92,butaritari,KI,3.07,172.79,Isles Sunset Lodge
93,bethel,US,41.37,-73.41,Courtyard by Marriott Danbury
94,huarmey,PE,-10.07,-78.15,Hotel Miramar
95,collie,AU,-33.37,116.15,Collie Ridge
96,padang,ID,-0.95,100.35,Mercure Padang
97,moerai,PF,-22.43,-151.33,Le Manotel
98,cayenne,GF,4.93,-52.33,Hôtel Le Dronmi
99,okha,RU,53.57,142.95,Империя
100,alpoyeca,MX,17.67,-98.52,"Puente VEHICULAR ALPOYECA-SAN JOSE BUENA VISTA GUERRERO, MÉXICO."
101,cherskiy,RU,68.75,161.3,Gostinitsa
102,saint-pierre-des-corps,FR,47.38,0.73,Hôtel Mercure Tours Centre Gare et Congrès
103,ostrovnoy,RU,68.05,39.51,
104,teguldet,RU,57.31,88.17,Gostinitsa Kedr
105,mahuva,IN,21.09,71.76,Hotel Blue Diamond.
106,lafiagi,NG,8.87,5.42,Bus group international
107,leningradskiy,RU,69.38,178.42,
108,honningsvag,NO,70.98,25.97,Nordkapp Vandrerhjem
109,nanortalik,GL,60.14,-45.24,"NTS Rooms, Nanortalik"
110,port blair,CD,-7.03,29.76,
111,egvekinot,RU,66.32,-179.17,
112,nuqui,CO,5.71,-77.27,Hotel Nuquimar
113,yellowknife,CA,62.46,-114.35,The Explorer Hotel
114,rabat,MA,33.99,-6.84,Hôtel Mercure Rabat Sheherazade
115,beyla,GN,8.68,-8.63,DIAN SINKO
116,juarez,MX,31.73,-106.48,Holiday Inn Express El Paso - Downtown
117,hasaki,JP,35.73,140.83,Inubosaki Kanko Hotel
118,souillac,MU,-20.52,57.52,Bils' Villa
119,brae,GB,60.4,-1.35,Busta House Hotel
120,lagoa,PT,39.05,-27.98,Casa Das Faias
121,ambanja,MG,-13.68,48.45,Hotel Marrakech
122,verkhnetulomskiy,RU,68.61,31.8,Отель Уют
123,jiuquan,CN,39.74,98.52,Jiuquan Hotel
124,salta,AR,-24.79,-65.41,Hotel Alejandro I
125,batticaloa,LK,7.71,81.69,Grand Star Guest House
126,yevlax,AZ,40.61,47.15,Yevlax Şeher Heyder Eliyev Parki
127,wangaratta,AU,-36.37,146.33,Quality Hotel Wangaratta Gateway
128,tilichiki,RU,60.47,166.1,
129,bluff,NZ,-46.6,168.33,Bluff Homestead - Guesthouse & Campervan Park
130,tiksi,RU,71.69,128.87,Arktika
131,hobart,AU,-42.88,147.33,St Ives Hobart Accommodation Tasmania
132,ayan,RU,56.45,138.17,Gostinitsa
133,bredasdorp,ZA,-34.53,20.04,Bredasdorp Country Manor
134,chuy,UY,-33.7,-53.46,Nuevo Hotel Plaza
135,morehead,US,37.27,-87.18,CCI Express Inn
136,severo-kurilsk,RU,50.68,156.12,Kak Doma
137,necochea,AR,-38.55,-58.74,dyd -mar Hotel
138,nizwa,OM,22.93,57.53,Orient Apartments
139,clyde river,US,41.3,-82.98,Red Roof Inn Clyde
140,kodiak,US,57.79,-152.41,Best Western Kodiak Inn and Convention Center
141,korla,CN,41.76,86.15,Gulisitan Hotel
142,bataysk,RU,47.14,39.75,Gostinichnyy Kompleks Aleksandr
143,phonhong,LA,18.5,102.42,Napakuang Resort
144,haines junction,US,59.23,-135.44,Haines Alaska guesthouse
145,tuktoyaktuk,CA,69.45,-133.04,End of The Road Ltd.
146,mount isa,GB,53.66,-1.85,Premier Inn Huddersfield West hotel
147,paamiut,GL,61.99,-49.67,Yeet Hotel
148,pisco,PE,-13.7,-76.22,Hotel San Isidro Oficial
149,dingle,PH,11.0,122.67,SEGAYA PROPERTY
150,fortuna,US,40.6,-124.16,Super 8 by Wyndham Fortuna
151,nuuk,GL,64.18,-51.72,Vandrehuset
152,porto recanati,PT,41.15,-8.61,Hotel Tiara Park Atlantic Porto
153,cascais,PT,38.7,-9.42,Hotel Vila Galé Cascais
154,ahipara,NZ,-35.17,173.17,Ahipara Holiday Park
155,phan thiet,TH,19.55,99.74,Khum Tai Lue Resort
156,stornoway,GB,58.21,-6.39,Caladh Inn
157,velingara,SN,13.15,-14.12,Hotel Najla
158,puerto ayora,ES,36.59,-6.23,Hotel Campomar Playa
159,shahgarh,IN,24.32,79.13,jain chat centar
160,falciu,RO,46.3,28.14,Coliba Bozia George Paul Jumi Andrei
161,hohhot,CN,40.81,111.65,Sheraton Hohhot Hotel
162,cabo rojo,BR,-8.28,-35.03,Sheraton Reserva do Paiva
163,cabo san lucas,BR,-8.28,-35.03,Sheraton Reserva do Paiva
164,cidreira,BR,-30.18,-50.21,Hotel Castelo
165,camden,US,39.78,-74.97,Days Inn by Wyndham Berlin Voorhees
166,buluang,PH,13.31,123.34,Enon Beach Resort
167,bengkulu,ID,-3.8,102.27,Grage Hotel Bengkulu
168,port elizabeth,CD,-7.03,29.76,
169,komsomolskiy,UZ,40.43,71.72,Ikathouse
170,castro,BR,-24.79,-50.01,CHACARA BAILLY
171,pavilosta,LV,56.89,21.19,"Hotel ""Vēju paradīze"""
172,payakumbuh,ID,-0.22,100.63,OYO 3114 Homestay Dalimo
173,tambura,SS,5.6,27.47,Guest hous Tambura
174,arman,RU,59.7,150.17,
175,chicama,PE,-7.84,-79.15,Hospedaje Punta Cana PERU
176,bellevue,US,47.61,-122.2,The Westin Bellevue
177,biak,ID,-0.91,122.88,Penginapan Kim
178,bratsk,RU,56.13,101.61,Shvedka
179,cotonou,BJ,6.37,2.42,Novotel Cotonou Orisha
180,korcula,HR,42.96,17.14,Hotel Marko Polo
181,tomatlan,MX,19.93,-105.25,Norma franco
182,sesheke,ZM,-17.48,24.3,Protea Hotel by Marriott Zambezi River Lodge
183,portland,US,45.52,-122.68,The Bidwell Marriott Portland
184,hammerfest,NO,70.66,23.68,Skytterhuset
185,olafsvik,IS,64.89,-23.71,Hotel Olafsvik
186,matamoros,MX,25.53,-103.25,Recreativo Sabdy Briseidy
187,brigantine,US,39.41,-74.36,Legacy Vacation Resort Brigantine Beach
188,kahului,US,20.89,-156.47,Maui Seaside Hotel
189,norman wells,US,35.22,-97.44,"Country Inn & Suites by Radisson, Norman, OK"
190,beloha,MG,-25.17,45.05,
191,klaksvik,FO,62.23,-6.59,Airbnb rooms
192,fort-shevchenko,KZ,44.51,50.26,Oasis hotel Bautino
193,pangnirtung,CA,66.15,-65.71,Kilabuk Lodge
194,abu jubayhah,IN,24.6,72.7,Hotel Ganesh
195,bonthe,SL,7.53,-12.51,Bonthe Holiday Village
196,alekseyevskaya,RU,50.29,42.18,
197,namibe,AO,-15.2,12.15,Hotel Chik Chik Namibe
198,bhag,PK,29.04,67.82,Bukhari hotl
199,salalah,OM,17.02,54.09,HAMDAN PLAZA HOTEL
200,arlit,NE,18.74,7.39,Hôtel Telwa Bungalow
201,acajutla,SV,13.59,-89.83,Urbanización Brisas de Acajutla II
202,tasiilaq,GL,65.61,-37.64,The Red House
203,milkovo,RU,54.72,158.62,"Hotel ""Geologist"""
204,atasu,KZ,48.68,71.64,Dostyk
205,maniitsoq,GL,65.42,-52.9,Hotel Heilmann Lyberth
206,arraial do cabo,BR,-22.84,-46.65,Chácara Deus está conosco
207,ixtapa,MX,20.7,-105.2,Container Inn Puerto Vallarta
208,sitka,US,57.05,-135.33,Westmark Sitka
209,grindavik,IS,63.84,-22.43,Northern Light Inn & Max's Restaurant
210,anchorage,US,61.22,-149.9,Hotel Captain Cook
211,san patricio,ML,13.3,-4.9,Hôtel Teriya
212,ankang,CN,32.68,109.02,安琪酒店
213,aklavik,CA,68.22,-135.01,Aklavik Inn
214,inuvik,CA,68.35,-133.72,Nova Inn Inuvik
215,hualmay,PE,-11.1,-77.61,Hotel Restaurant Turístico Casablanca
216,lorengau,PG,-2.02,147.27,Lorengau Harbourside Hotel
217,kupino,RU,54.37,77.3,Hotel Sibiria Inn
218,caravelas,BR,-17.71,-39.25,Pousada dos Navegantes
219,kavieng,PG,-2.57,150.8,Nusa Island Retreat
220,nelson bay,NZ,-41.28,173.28,Trailways Hotel
221,angren,UZ,41.02,70.14,Sardor Salimovich
222,jumla,NP,29.27,82.18,Hotel Sundar Rara Karnali
223,sept-iles,CA,50.2,-66.38,Comfort Inn
224,poya,NC,-21.35,165.15,
225,sarkand,KZ,45.41,79.92,Гостиница Сарканд
226,mamallapuram,IN,12.63,80.17,Radisson Blu Resort Temple Bay Mamallapuram
227,syamzha,RU,60.02,41.06,Hotel Syamzha
228,lake city,US,42.33,-88.0,Hampton Inn & Suites Chicago-Libertyville
229,ukiah,US,39.15,-123.21,Hampton Inn Ukiah
230,sabang,ID,5.89,95.32,Hotel Citra
231,knysna,ZA,-34.04,23.05,Protea Hotel by Marriott Knysna Quays
232,parana,AR,-31.73,-60.52,Howard Johnson Plaza Hotel Mayorazgo
233,ambon,ID,-3.7,128.18,Swiss-Belhotel Ambon
234,kaihua,CN,23.37,104.28,Zhongyu Hotel
235,esperance,AU,-33.87,121.9,Hospitality Esperance
236,zhigansk,RU,66.77,123.37,Gostinichnyy Kompleks Aylgy
237,naranjal,EC,-2.67,-79.62,Media Naranja
238,mayumba,GA,-3.43,10.66,LIKWALE LODGE
239,gilgit,PK,35.92,74.31,Tourist Hamlet Gilgit
240,tipitapa,NI,12.2,-86.1,Hotel Entre Rios
241,mbandaka,CD,0.05,18.26,Guest House Epervier
242,luena,AO,-11.78,19.92,Hotel Kandamba
243,lumphat,KH,13.49,106.98,Lumphat Homestay
244,saint-augustin,CA,51.23,-58.65,
245,manacapuru,BR,-3.3,-60.62,Novo Hotel
246,batagay-alyta,RU,67.8,130.41,
247,roma,US,43.21,-75.46,Wingate By Wyndham Rome
248,ilulissat,GL,69.22,-51.1,Hotel Arctic
249,sterling,US,39.01,-77.43,Hampton Inn & Suites Washington-Dulles International Airport
250,bowen,AU,-20.02,148.23,Castle Motor Lodge Motel
251,mantes-la-ville,FR,48.97,1.7,Hôtel du Val de Seine
252,mehamn,NO,71.04,27.85,Mehamn Arctic Hotel AS
253,tommot,RU,58.96,126.29,Gostinitsa Tommot
254,lebu,CL,-37.62,-73.65,Hostal Las Lilas
255,boa vista,CM,4.43,8.97,
256,virginia beach,US,37.55,-77.45,Holiday Inn Express Richmond - Downtown
257,sosnovo,RU,60.55,30.21,Резиденция в Сосново
258,nogliki,RU,51.83,143.17,"Hotel ""Nogliki"""
259,morros,BR,-9.45,-46.3,
260,yarada,IN,17.65,83.27,"D-26/2, Dolphin Hill,"
261,sao filipe,IN,20.51,76.21,Saikrupa Lawns
262,dunedin,NZ,-45.87,170.5,Scenic Hotel Southern Cross
263,vuktyl,RU,63.86,57.31,Mini-Hotel Lokomotiv
264,bubaque,GW,11.28,-15.83,"Casa Dora, Bubaque"
265,minsk mazowiecki,BY,53.9,27.57,Minsk Hotel
266,kedrovyy,RU,56.17,91.82,
267,coro,VE,11.4,-69.67,Federal
268,nalut,LY,30.33,10.85,
269,champerico,GT,14.3,-91.92,"Hotel y restaurante ""El Diamante"""
270,dukhovnitskoye,RU,52.48,48.21,
271,zhuhai,CN,22.28,113.57,珠海粤财假日酒店
272,codrington,AU,-38.27,141.97,Codrington Gardens Bed And Breakfast
273,saint-denis,FR,48.92,2.33,Appart'City Paris Clichy Mairie - Appart Hôtel
274,nizhneangarsk,RU,55.78,109.55,Хостел
275,palauig,PH,15.44,119.9,Myhousebythesea
276,nijar,ES,36.97,-2.21,La Casa del Cine
277,wajid,SO,3.81,43.25,xamdihotelresturant114
278,mayenne,FR,48.33,-0.67,la Tour des Anglais
279,grand river south east,US,38.88,-109.5,
280,georgiyevka,KZ,43.04,74.71,Gostinitsa Dostyk 1 U Zheni
281,valparaiso,CL,-33.04,-71.63,Hotel Ultramar
282,sile,TR,41.18,29.61,Seref Hotel
283,vao,NC,-22.67,167.48,Hotel Kou-Bugny
284,panaba,MX,21.28,-88.27,Hotel Amor
285,bonavista,CA,48.65,-53.11,Abbott's Bed & Breakfast
286,mananjary,MG,-21.22,48.33,Vahiny Lodge
287,sai buri,FR,48.74,0.03,Hostellerie De La Renaissance
288,vardo,NO,70.37,31.11,Vardø Hotel AS
289,nouadhibou,MR,20.93,-17.03,El Medina
290,fayaoue,NC,-20.65,166.53,Chez Dydyce Guesthouse
291,boyolangu,ID,-8.12,111.89,Yos ega cv
292,palaikastron,GR,35.2,26.25,Marina Village
293,vila,PT,42.03,-8.16,Hotel Castrum Villae
294,benghazi,LY,32.12,20.07,Tibesti Hotel
295,mikhaylovka,RU,50.06,43.24,5 Komnat
296,kamiiso,JP,41.82,140.65,ビジネス民宿あべ
297,flinders,AU,-34.58,150.86,Shellharbour Resort & Conference Centre
298,torbay,CA,47.67,-52.73,Gallows Cove
299,salinopolis,BR,-0.61,-47.36,Salinas Park Resort Maçarico AP101
300,lavrentiya,RU,65.58,-171.0,
301,rock sound,US,42.67,-89.07,Cobblestone Hotel & Suites - Janesville
302,longkou,CN,37.65,120.33,Pai Hotel Yantai Longkou City Heping Road
303,yumen,CN,40.28,97.2,
304,poum,NC,-20.23,164.02,Gîte kajeon
305,omboue,GA,-1.57,9.26,Hotel Olako
306,nyurba,RU,63.28,118.33,Gostinitsa Alrosa
307,noumea,NC,-22.28,166.46,Hôtel Le Lagon
308,vetluga,RU,57.86,45.78,Luga
309,alugan,PH,12.22,125.48,JM Lodge
310,tarakan,ID,3.3,117.63,RedDoorz Syariah near Taman Berlabuh Tarakan
311,bodo,NO,67.28,14.4,Clarion Collection Hotel Grand Bod
312,ruidoso,US,33.33,-105.67,Inn of the Mountain Gods
313,half moon bay,LR,6.38,-10.7,Kebbah CIA
314,xai-xai,MZ,-25.05,33.64,Platinum Hotel
315,oneonta,US,42.45,-75.06,Hampton Inn Oneonta
316,bairiki,KI,1.33,172.98,Tarawa Boutique Hotel
317,tura,IN,25.52,90.22,Hotel RIKMAN Continental
318,isla vista,PH,15.89,120.3,Green Apple Inn
319,warrnambool,AU,-38.38,142.48,Lady Bay Resort
320,mvomero,TZ,-6.25,38.67,Kisampa Bush Retreat
321,mabaruma,GY,8.2,-59.78,
322,salekhard,RU,66.53,66.6,Hotel 89
323,salimpur,IN,28.13,76.28,जाजम Royal Family Rao shab
324,tezu,IN,27.92,96.17,Circuit House
325,dorokhovo,RU,55.55,36.37,LES Art Resort
326,estrela,BR,-28.06,-50.94,
327,jiaozhou,CN,36.28,120.0,Sheraton Qingdao Jiaozhou Hotel
328,rock falls,US,42.67,-89.07,Cobblestone Hotel & Suites - Janesville
329,piacabucu,BR,-10.41,-36.43,Piaçabuçu News
330,karaton,ID,-6.34,106.1,Parkir Mobil Wisata CAS Water Park
331,ryotsu,JP,38.08,138.43,Sadokamoko Onsen Kohanno Yado Yoshidaya
332,pimentel,PE,-6.84,-79.93,Casona Del Muelle
333,takoradi,GH,4.88,-1.76,Raybow International Hotel
334,usolye-sibirskoye,RU,52.75,103.65,Hotel Usolie
335,touros,BR,-5.2,-35.46,INN NEW HORIZON
336,kharan,PK,28.58,65.42,Ghani Hasrat House
337,christchurch,NZ,-43.53,172.63,"Chateau on the Park - Christchurch, a DoubleTree by Hilton"
338,sidney,AU,-33.87,151.21,QT Sydney
339,koster,ZA,-25.86,26.9,Klub Kranskuil
340,merauke,ID,-8.47,140.33,
341,santo nino,EC,-0.59,-80.0,Estancia zursan
342,tres arroyos,IT,46.32,11.1,Hotel Rifugio Sores
343,cockburn town,AU,-32.08,141.0,Coburn Hotel
344,kloulklubed,PW,7.04,134.26,Storyboard Beach Resort
345,lokomotivnyy,RU,53.01,60.57,
346,taoudenni,ML,22.68,-3.98,
347,arcata,US,40.87,-124.08,"Hampton Inn & Suites Arcata, CA"
348,lata,PT,40.16,-8.33,Casa Maquia
349,harper,LR,4.38,-7.72,Screensaver
350,hovd,MN,48.01,91.64,Buyant Hotel
351,lobva,RU,59.19,60.52,
352,dalvik,IS,65.97,-18.53,Dalvík HI Hostel
353,prince rupert,CA,52.97,-108.38,
354,floro,NO,61.6,5.03,Kinn Hotell Florø
355,lasa,IT,46.62,10.7,Pension Feldgärtenhof
356,luderitz,,-26.65,15.16,LÜDERITZ NEST HOTEL
357,mustasaari,FI,63.11,21.68,Hotel Astor
358,sapele,NG,5.89,5.68,Movig Hotel & Suites
359,vaasa,FI,63.1,21.62,Hotel Astor
360,mys shmidta,RU,62.06,48.62,
361,bowling green,GB,55.93,-4.49,Ingliston Country Club and Hotel
362,turayf,SA,31.67,38.66,Swiss Spirit Hotel & Suites Turaif
363,abalak,RU,58.13,68.59,Туристический комплекс Абалак
364,ochakiv,UA,46.61,31.55,Briz
365,maragogi,BR,-9.01,-35.22,Salinas do Maragogi All Inclusive Resort
366,puerto penasco,ES,36.59,-6.23,Hotel Campomar Playa
367,port lincoln,CD,-7.03,29.76,
368,terney,RU,45.05,136.61,"Hotel ""Ternay"""
369,oxbow,CA,49.23,-102.17,Bow Manor Motor Hotel
370,nizhniy kuranakh,RU,45.39,39.24,СТО CUMMINS
371,basco,PH,20.45,121.97,Nathaniel's Lodge
372,carnarvon,AU,-24.87,113.63,Hospitality Carnarvon
373,mehran,IR,33.12,46.16,بوتیک زنانه بهار
374,tuy hoa,PH,14.02,120.73,Villa Gavana Resort
375,port macquarie,CD,-7.03,29.76,
376,carbonear,CA,47.73,-53.21,Hotel Harbour Grace
377,ketchikan,US,55.34,-131.65,Snows Cove Lodge
378,rafai,CF,4.95,23.92,
379,indramayu,ID,-6.33,108.32,Grand Trisula Hotel
380,richards bay,US,46.84,-95.91,Americas Best Value Inn & Suites - Detroit Lakes MN
381,imeni poliny osipenko,NG,7.32,5.96,Dipo Resort
382,okato,NZ,-39.2,173.88,Goodin Country Garden
383,deputatskiy,RU,69.3,139.9,Baza Otdykha
384,galle,LK,6.04,80.22,Amangalla
385,zaozerne,UA,45.16,33.28,"Molodozhnyy Lager' ""Pioner"""
386,toledo,ES,39.83,-4.0,Hotel Carlos V Toledo
387,kavaratti,IN,10.57,72.64,Hotels in Lakshadweep Islands
388,tintigny,BE,49.68,5.51,Gauthier / Stany
389,longhua,CN,23.61,114.19,Huadu Hotel
390,axim,GH,4.87,-2.24,AXIM BEACH RESORT AND SPA
391,vila velha,PT,42.03,-8.16,Hotel Castrum Villae
392,bathsheba,BB,13.22,-59.52,Atlantis Hotel
393,terrace bay,CA,54.52,-128.6,Northern Motor Inn
394,alekseyevsk,RU,57.84,108.35,
395,broome,US,42.25,-75.83,Chenango Valley State Park
396,tabas,IR,33.6,56.92,شرکت معماری مهراز شایگان آراد
397,jequitinhonha,BR,-16.43,-41.0,Hotel Bela Vista
398,kokstad,ZA,-30.55,29.42,Majestic Bed and Breakfast
399,cabatuan,PH,10.88,122.49,ROREM'S BOARDING HOUSE
400,rockingham,US,42.97,-71.1,Iron Wheel Mobile Home Park
401,ikirun,NG,7.92,4.67,"De-Marvellous Guest House, Obaagun"
402,kalabo,ZM,-14.97,22.68,Sikakubete Guest House Kalabo Town Council
403,yar-sale,RU,66.83,70.83,Yalemd
404,seon,CH,47.34,8.16,Eichberg
405,carmo do paranaiba,BR,-21.93,-42.61,Pousada do Carmo
406,sao joao da barra,IN,20.51,76.21,Saikrupa Lawns
407,anloga,GH,5.79,0.9,Pin Drop Hotel
408,francisco sa,US,38.33,-87.45,Tooley Mobile Home Park
409,sibolga,ID,1.74,98.78,Hotel Syariah CN Darussalam
410,manicore,BR,-5.81,-61.3,Pousada da wanda
411,saurimo,AO,-9.66,20.39,Hotel Kawissa Saurimo
412,limoeiro do ajuru,BR,-7.87,-35.45,Hotel das Oliveiras
413,daultala,PK,33.19,73.14,Waheed garmints and cosmetic
414,sinazongwe,ZM,-17.26,27.46,Lakeview Lodge
415,palmer,US,42.16,-72.33,Wedgewood Motel
416,mandurah,AU,-32.55,115.7,Atrium Hotel Mandurah
417,kemijarvi,FI,66.71,27.43,Hotelli Kemijärvi
418,mozelos,PT,41.87,-8.4,Casa do Rio Vez - Alojamento de Charme
419,tamasane,BW,-22.42,27.4,
420,zainsk,RU,55.32,52.07,Дельфин
421,antofagasta,CL,-23.65,-70.4,Holiday Inn Express Antofagasta
422,leh,IN,34.17,77.58,Hotel Ladakh Greens
423,ancud,CL,-41.87,-73.82,Hotel Arena Gruesa
424,katherine,AU,-14.47,132.27,Pine Tree Motel
425,vanavara,RU,60.34,102.28,
426,micheweni,TZ,-4.97,39.83,
427,methoni,GR,36.82,21.7,Methoni Beach Hotel
428,contai,IN,21.78,87.75,Hotel Hindusthan
429,lodja,CD,-3.48,23.43,
430,monterey,US,36.25,-121.25,
431,mmabatho,ZA,-25.85,25.63,Mahikeng Guest Apartments
432,filadelfia,US,39.95,-75.16,Loews Philadelphia Hotel
433,jalu,LY,29.03,21.55,صاحبة الفخامة
434,mus,TR,39.0,41.75,
435,skibbereen,IE,51.55,-9.27,The West Cork Hotel
436,jacqueville,CI,5.21,-4.41,Hotel Le Martin Pecheur
437,newport,GB,51.59,-3.0,ibis budget Newport
438,katsuura,JP,35.13,140.3,Katsuura Hotel Mikazuki
439,margate,GB,51.38,1.39,Premier Inn Margate hotel
440,mujiayingzi,CN,42.12,118.78,Jinjiang Hotel
441,laguna,US,38.42,-121.42,Holiday Inn Express & Suites Elk Grove Central - Hwy 99
442,robertsport,LR,6.75,-11.37,Kwepunha Retreat
443,ibra,OM,22.69,58.53,مزرعة راحة النفوس المنزفة
444,mezen,RU,65.85,44.24,
445,brekstad,NO,63.69,9.67,Orland Kysthotell
446,maniwaki,CA,46.38,-75.97,Centre Chateau Logue
447,raudeberg,NO,61.99,5.14,Nordre Silda.
448,vostok,RU,46.49,135.88,
449,sobolevo,RU,54.43,31.9,
450,bijie,CN,27.31,105.29,Four Points by Sheraton Bijie
451,jaysingpur,IN,16.78,74.56,Hotel Trust Inn
452,meghri,AM,38.9,46.24,Haer B&B
453,nisia floresta,GR,39.39,21.64,Montanema Handmade Village
454,jaguariaiva,BR,-24.25,-49.71,San Juan Jaguariaíva
455,riyadh,SA,24.69,46.72,InterContinental Riyadh
456,veracruz,MX,19.33,-96.67,El Carrizal
457,shelburne,CA,44.08,-80.2,The Retreat at the Farm
458,lockport,US,41.59,-88.06,Big Run Wolf Ranch
459,gijon,ES,43.54,-5.66,Hotel Norte
460,bardiyah,LY,31.76,25.09,بورتو بردية
461,aksum,ET,14.12,38.72,Remhai Hotel
462,inhambane,MZ,-23.86,35.38,Oceano
463,kidal,ML,18.44,1.41,
464,isangel,VU,-19.55,169.27,Volcano Sea View Tree House
465,muisne,EC,0.6,-80.03,Quinta Samay
466,boralday,KZ,43.36,76.86,Burunday Oteli
467,aripuana,BR,-9.17,-60.63,
468,taksimo,RU,56.34,114.88,"Gostinitsa ""Viktoriya"""
469,kiruna,SE,67.86,20.23,Camp Ripan
470,cabog,PH,15.32,121.37,Matawe Bay Farm Resort
471,kattivakkam,IN,13.22,80.32,St. Joseph Thirumana mandapam
472,college,US,64.86,-147.8,Pike's Waterfront Lodge
473,pag,HR,44.45,15.06,Hotel Meridijan
474,mareeba,AU,-17.0,145.43,Trinity Plains Tourist Park
475,kodinsk,RU,58.69,99.18,
476,twin falls,US,48.16,-123.95,
477,hervey bay,US,33.5,-93.78,
478,yerbogachen,RU,61.28,108.01,
479,fomboni,KM,-12.28,43.74,Auberge les abou
480,oranjemund,,-28.55,16.43,The Fisherman's Cove
481,nata,PA,8.33,-80.52,Cabañas Estancia Bayamon
482,krasnoselkup,RU,65.7,82.47,Krasnosel'kupnefteprodukt
483,alice springs,US,27.75,-98.07,Holiday Inn Express & Suites Alice
484,pierre,US,44.37,-100.35,Ramkota Hotel
485,shepsi,RU,44.04,39.15,Otel' Chayka
486,basoko,CD,1.24,23.62,Flat Hotel La Benediction
487,ust-tsilma,RU,65.44,52.15,U Praskov'i
488,ocos,GT,14.51,-92.19,La Bajadita
489,fairbanks,US,64.84,-147.72,Westmark Fairbanks Hotel & Conference Center
490,rio gallegos,GR,38.3,21.78,Hotel Apollon
491,saint-francois,FR,46.42,3.91,Manoir Du Bonheur
492,fare,PF,-16.7,-151.02,Maitai Lapita Village Huahine
493,deming,US,32.27,-107.76,Best Western Deming Southwest Inn
494,taunggyi,MM,20.78,97.03,True Treasure Hotel
495,manono,CD,-7.3,27.42,Hotel hewa bora
496,karasjok,NO,69.47,25.51,Karasjok camping AS
497,serro,BR,-18.6,-43.38,Pousada Mariana
498,coquimbo,CL,-29.95,-71.34,Hotel San Juan
499,thyboron,DK,56.7,8.21,Thyborøn Hotel
500,nha trang,NP,27.91,86.72,Cholo View Lodge
501,santana de parnaiba,BR,-0.06,-51.18,Porto Santana
502,pangody,RU,65.85,74.49,Elizaveta Shevchuk's House
503,upington,ZA,-28.45,21.26,River Place Manor
504,mtwara,TZ,-10.27,40.18,Til Hotels
505,ust-ishim,RU,57.69,71.17,"Velichko T.p., Gostinitsa"
506,cordoba,AR,-31.41,-64.18,Sheraton Cordoba Hotel
507,natchitoches,US,31.77,-93.13,Super 8 by Wyndham Natchitoches
508,aginskoye,RU,51.1,114.53,Кочевник
509,coahuayana,MX,18.73,-103.68,Hotel Los Arcos
510,maceio,BR,-9.67,-35.74,Mercure Maceio Pajucara Hotel
511,atar,MR,20.52,-13.05,Oumou Elghoura
512,santa rosa,PH,17.49,120.43,The Mansion
513,mbuji-mayi,CD,-6.15,23.6,HOTEL METROPOLE DU KASAI
514,faribault,US,44.3,-93.27,GrandStay® Residential Suites Hotel – Faribault
515,marsh harbour,GB,53.65,-1.81,Cambridge Hotel
516,ramnagar,IN,29.4,79.12,Leisure Vacation Myrica Hotel
517,grants,US,35.15,-107.85,"Motel 6 Grants, NM"
518,roald,NO,62.58,6.13,Flem Cabins
519,dakar,SN,14.69,-17.44,Novotel Dakar
520,tulare,US,36.27,-118.8,Puppy
521,sumbe,AO,-11.21,13.84,Hotel Ritz Sumbe
522,xining,CN,36.62,101.77,Super Leisure Hotel
523,bodden town,GB,51.2,-2.52,Charlton House Hotel & Spa
524,san andres,ML,13.3,-4.9,Hôtel Teriya
525,maracas,BR,-13.44,-40.43,Pousada Vale Aprazível
526,iqaluit,CA,63.75,-68.51,Frobisher Inn
527,starokostyantyniv,UA,49.76,27.2,Lider
528,oranjestad,AW,12.52,-70.03,Divi Village Golf & Beach Resort
529,mao,ES,39.89,4.27,ARTIEM Capri
530,marzuq,YE,14.4,46.47,
531,oktyabrskoye,RU,43.06,44.74,Prolesok Mini-hotel
532,klamath falls,US,42.67,-121.75,
533,tosya,TR,41.02,34.04,Hakan Hotel
534,sisimiut,GL,66.94,-53.67,Hotel Sisimiut
535,mercedes,AR,-34.65,-59.43,Posada del Inti Centro
536,borogontsy,RU,62.67,131.17,
537,nabire,ID,-3.37,135.48,Hotel Nusantara Nabire
538,zyryanka,RU,65.75,150.85,
539,abu samrah,IN,24.6,72.7,Hotel Ganesh
540,boguchany,RU,58.38,97.45,Uyut
541,vaitape,PF,-16.52,-151.75,Conrad Bora Bora Nui
542,vysokogornyy,RU,50.12,139.15,
543,manadhoo,MV,5.77,73.38,Vevu Guesthouse
544,tuatapere,NZ,-46.13,167.68,Ron and Tony's Bed & Breakfast
545,kawalu,ID,-7.38,108.21,KOSAN UNGU UNSIK
546,opatija,HR,45.34,14.31,Hotel Opatija
547,westport,US,41.14,-73.36,Norwalk Inn
548,vizinga,RU,61.07,50.1,"Gostinitsa ""Nadezhda"""
549,ferkessedougou,CI,9.6,-5.2,Hotel Chateau
550,alofi,NU,-19.06,-169.92,Taloa Heights
551,aldan,RU,58.6,125.39,Aldan Guest House
552,peking,CN,39.91,116.4,Capital Hotel
553,martapura,ID,-3.42,114.85,Montana Hotel Syariah
554,ulaanbaatar,MN,47.91,106.88,The Blue Sky Hotel and Tower
555,mana,GF,5.66,-53.78,LE SAMANA
556,mitu,CO,1.2,-70.17,
557,idlib,SY,35.93,36.63,مركز تسيل للتجميل
558,novoukrainskoye,RU,45.38,40.53,Hotel Edem
559,porto novo,PT,41.15,-8.61,Hotel Tiara Park Atlantic Porto
560,susanville,US,40.42,-120.65,Red Lion Inn & Suites Susanville
561,warrington,GB,53.39,-2.58,Villaggio Hotel
562,tuni,IN,17.35,82.55,Sai Krishna Lodge
